satname,norad_id,inclination_deg,eccentricity,mean_motion_rev_per_day,perigee_km,apogee_km,l1,l2
STARLINK-1423,45710,53.0548,0.0001475,15.06386523,546.2313683053435,548.2743583150204,1 45710U 20035BF  25289.32948847  .00000029  00000+0  20860-4 0  9998,2 45710  53.0548 324.6818 0001475  93.8392 266.2766 15.06386523297391
STARLINK-1433,45711,53.0544,0.0001466,15.06403397,546.1858920698014,548.2164012143976,1 45711U 20035BG  25289.37739689  .00005372  00000+0  37922-3 0  9998,2 45711  53.0544 324.4628 0001466  87.3180 272.7977 15.06403397297393
STARLINK-1434,45712,53.0517,0.0002659,15.13900163,522.4842291650393,526.1549555808642,1 45712U 20035BH  25289.29178909  .00036602  00000+0  20046-2 0  9990,2 45712  53.0517 321.8911 0002659   0.8214 359.2782 15.13900163297434
STARLINK-1465,45731,53.0515,0.0001735,15.06404033,545.9976515714634,548.4007432319622,1 45731U 20038B   25288.94614546  .00009625  00000+0  66407-3 0  9994,2 45731  53.0515 166.3974 0001735  77.7419 282.3764 15.06404033294371
STARLINK-1471,45735,53.0503,0.0003081,15.40065643,443.8129105131311,448.01789160266253,1 45735U 20038F   25289.56707626  .00023110  00000+0  57740-3 0  9994,2 45735  53.0503 107.4883 0003081 129.0524 231.0755 15.40065643295269
STARLINK-1474,45738,53.0384,0.0003444,15.64238731,373.1031177073246,377.75497399970845,1 45738U 20038J   25289.65234980  .00072626  00000+0  74698-3 0  9992,2 45738  53.0384  67.1253 0003444 229.1810 130.8906 15.64238731295838
STARLINK-1475,45739,53.0518,0.0003498,15.70080337,356.31066188735804,361.02373010287647,1 45739U 20038K   25289.66668981  .00238149  00000+0  18851-2 0  9998,2 45739  53.0518  34.4013 0003498 286.2560  95.4460 15.70080337  6019
STARLINK-1480,45741,53.0518,0.000153,15.0640306,546.1426026004119,548.2617563893373,1 45741U 20038M   25289.39214469  .00001808  00000+0  14025-3 0  9999,2 45741  53.0518 164.3970 0001530  79.8510 280.2652 15.06403060294458
STARLINK-1500,45744,53.0371,0.000487,15.26710506,482.31124328404167,488.9965756298516,1 45744U 20038Q   25288.98775020  .00018921  00000+0  72184-3 0  9995,2 45744  53.0371 147.2830 0004870 134.6666 225.4729 15.26710506294651
STARLINK-1504,45746,53.0285,0.000596,15.38122872,447.58984524175776,455.7309637479166,1 45746U 20038S   25289.57348791  .00102335  00000+0  26597-2 0  9993,2 45746  53.0285 110.4908 0005960 133.7454 226.4043 15.38122872295210
STARLINK-1506,45747,53.0508,0.0004337,15.20788011,500.4778589968364,506.4469583239088,1 45747U 20038T   25289.34249117  .00028582  00000+0  12900-2 0  9995,2 45747  53.0508 147.4719 0004337 158.9919 201.1255 15.20788011294680
STARLINK-1464,45751,53.0528,0.0001353,15.06400845,546.2719688267025,548.1459674456801,1 45751U 20038X   25289.59303976  .00010525  00000+0  72441-3 0  9996,2 45751  53.0528 143.4940 0001353  86.7937 273.3207 15.06400845294769
STARLINK-1477,45754,53.053,0.0001402,15.06408596,546.2142823874065,548.1561427358083,1 45754U 20038AA  25289.34237902  .00006116  00000+0  42902-3 0  9997,2 45754  53.0530 144.6190 0001402  88.6074 271.5075 15.06408596294723
STARLINK-1478,45755,53.0507,0.0001435,15.06395135,546.2326788449873,548.2202581604479,1 45755U 20038AB  25289.29446323  .00001291  00000+0  10557-3 0  9991,2 45755  53.0507 144.8342 0001435  86.2585 273.8568 15.06395135294700
STARLINK-1484,45756,53.0167,0.0002044,15.57454891,393.6415046849788,396.4103736945199,1 45756U 20038AC  25289.64615999  .00053836  00000+0  72185-3 0  9995,2 45756  53.0167  54.5191 0002044 192.2214 167.8748 15.57454891296004
STARLINK-1493,45759,53.0527,0.000153,15.06389398,546.1844684309699,548.3036350328002,1 45759U 20038AF  25289.01802932  .00008384  00000+0  58126-3 0  9991,2 45759  53.0527 146.0747 0001530 102.2907 257.8253 15.06389398294664
STARLINK-1494,45760,53.054,5.85e-05,15.50033504,416.2306610504211,417.02564857353445,1 45760U 20038AG  25289.58376847  .00032054  00000+0  56734-3 0  9990,2 45760  53.0540 133.3181 0000585  88.5808 271.5267 15.50033504294906
STARLINK-1502,45764,53.052,0.0001151,15.0639187,546.4393648423984,548.033585816419,1 45764U 20038AL  25289.31658470  .00003634  00000+0  26278-3 0  9992,2 45764  53.0520 144.7351 0001151  83.0624 277.0496 15.06391870294728
STARLINK-1470,45772,53.0501,0.0004848,15.16488669,513.1202838893414,519.8052878417157,1 45772U 20038AU  25289.60992479  .00036701  00000+0  18679-2 0  9999,2 45772  53.0501 117.0122 0004848 148.1602 211.9685 15.16488669295137
STARLINK-1482,45773,53.0531,0.0001501,15.06387094,546.2116124960812,548.2906140076793,1 45773U 20038AV  25289.54695200  .00000745  00000+0  68916-4 0  9995,2 45773  53.0531 123.7008 0001501  95.1461 264.9699 15.06387094295036
STARLINK-1485,45774,53.0415,0.0004386,15.94413584,287.02425060666064,292.87349553451804,1 45774U 20038AW  25289.66668981  .00458773  95006-4  11968-2 0  9991,2 45774  53.0415  60.8784 0004386 323.1447 305.4103 15.94413584  6001
STARLINK-1496,45780,53.053,0.000127,15.06388327,546.3678104226328,548.126858043528,1 45780U 20038BC  25289.58012810  .00000522  00000+0  53916-4 0  9994,2 45780  53.0530 123.5510 0001270  86.1017 274.0117 15.06388327295025
STARLINK-1497,45781,53.0407,0.0008312,15.49320783,413.0622800881365,424.3613615678805,1 45781U 20038BD  25289.66668981  .00146981  00000+0  25973-2 0  9990,2 45781  53.0407  73.3232 0008312 179.5252  75.7295 15.49320783  5801
STARLINK-1510,45784,53.0337,0.0003783,15.64297672,372.704590348274,377.8142100646701,1 45784U 20038BG  25289.66668981 -.00007183  00000+0 -68221-4 0  9990,2 45784  53.0337  51.1666 0003783 122.4474 280.7399 15.64297672  5991
STARLINK-1513,45786,53.0535,0.0001509,15.06391874,546.1914242142966,548.2815019254513,1 45786U 20038BJ  25289.60960779  .00001535  00000+0  12198-3 0  9990,2 45786  53.0535 123.4205 0001509  90.4252 269.6910 15.06391874295044
STARLINK-1522,46027,53.055,0.0001255,15.06433407,546.2400537923049,547.9782905815237,1 46027U 20055A   25289.05946065 -.00006600  00000+0 -42423-3 0  9993,2 46027  53.0550  55.8863 0001255  99.5090 260.6041 15.06433407287086
STARLINK-1523,46028,53.0566,7.58e-05,15.06393567,546.7063313117342,547.7562171421077,1 46028U 20055B   25289.07421738  .00000335  00000+0  41392-4 0  9993,2 46028  53.0566  55.8229 0000758 248.4872 111.6036 15.06393567287104
STARLINK-1526,46029,53.0539,6.97e-05,15.06426866,546.6465276859808,547.6119097968731,1 46029U 20055C   25289.06682325  .00003244  00000+0  23636-3 0  9996,2 46029  53.0539  55.8498 0000697 246.2502 113.8414 15.06426866287092
